{
  "norad_id": 65504,
  "name": "STARLINK-35182",
  "history": [
    {
      "epoch": "2026-03-28T17:48:47.899584Z",
      "apogee_km": 475.98382991688777,
      "perigee_km": 474.40125905847526,
      "latitude_deg": 4.909407013745192e-05,
      "longitude_deg": 89.38485265374804,
      "height_km": 476.1693455550912,
      "semi_major_axis_km": 6853.329544487681,
      "eccentricity": 0.00011546,
      "inclination_deg": 53.1595,
      "raan_deg": 182.7427,
      "arg_perigee_deg": 95.7022,
      "mean_anomaly_deg": 264.4111,
      "mean_motion_rev_day": 15.30207544
    },
    {
      "epoch": "2026-03-29T20:27:42.664896Z",
      "apogee_km": 475.98659971999587,
      "perigee_km": 474.4857109989716,
      "latitude_deg": 4.1910100007473525e-05,
      "longitude_deg": 43.40304194127705,
      "height_km": 476.2154100506858,
      "semi_major_axis_km": 6853.3731553594835,
      "eccentricity": 0.0001095,
      "inclination_deg": 53.1597,
      "raan_deg": 177.5835,
      "arg_perigee_deg": 96.1945,
      "mean_anomaly_deg": 263.9181,
      "mean_motion_rev_day": 15.30192938
    },
    {
      "epoch": "2026-03-29T20:27:42.665760Z",
      "apogee_km": 475.9863941188005,
      "perigee_km": 474.485916600167,
      "latitude_deg": 4.466258834911113e-05,
      "longitude_deg": 43.403040382161564,
      "height_km": 476.2153878660314,
      "semi_major_axis_km": 6853.3731553594835,
      "eccentricity": 0.00010947,
      "inclination_deg": 53.1597,
      "raan_deg": 177.5835,
      "arg_perigee_deg": 96.1945,
      "mean_anomaly_deg": 263.9181,
      "mean_motion_rev_day": 15.30192938
    },
    {
      "epoch": "2026-03-30T12:08:14.805888Z",
      "apogee_km": 476.1071528125194,
      "perigee_km": 474.2849886156773,
      "latitude_deg": 1.2947563601078828e-05,
      "longitude_deg": 164.5932264223411,
      "height_km": 476.0461852673033,
      "semi_major_axis_km": 6853.333070714098,
      "eccentricity": 0.00013294,
      "inclination_deg": 53.1601,
      "raan_deg": 174.5514,
      "arg_perigee_deg": 86.9867,
      "mean_anomaly_deg": 273.1286,
      "mean_motion_rev_day": 15.30206363
    },
    {
      "epoch": "2026-03-30T15:16:21.177408Z",
      "apogee_km": 476.05699438427837,
      "perigee_km": 474.32323969021127,
      "latitude_deg": 5.155558933346616e-05,
      "longitude_deg": 116.83155322486645,
      "height_km": 475.9733141306353,
      "semi_major_axis_km": 6853.3271170372445,
      "eccentricity": 0.00012649,
      "inclination_deg": 53.1598,
      "raan_deg": 173.945,
      "arg_perigee_deg": 82.3849,
      "mean_anomaly_deg": 277.7296,
      "mean_motion_rev_day": 15.30208357
    },
    {
      "epoch": "2026-03-31T11:39:02.604384Z",
      "apogee_km": 476.68715711102504,
      "perigee_km": 473.79009816571033,
      "latitude_deg": 5.4516893584734105e-05,
      "longitude_deg": 166.3774422579369,
      "height_km": 476.2393174830069,
      "semi_major_axis_km": 6853.375627638367,
      "eccentricity": 0.00021136,
      "inclination_deg": 53.16,
      "raan_deg": 170.0004,
      "arg_perigee_deg": 94.1103,
      "mean_anomaly_deg": 266.014,
      "mean_motion_rev_day": 15.3019211
    },
    {
      "epoch": "2026-04-01T11:09:50.784768Z",
      "apogee_km": 476.3126963294899,
      "perigee_km": 474.05521240712096,
      "latitude_deg": 4.9152821407416856e-05,
      "longitude_deg": 168.15972761291619,
      "height_km": 476.2031192831521,
      "semi_major_axis_km": 6853.320954368305,
      "eccentricity": 0.0001647,
      "inclination_deg": 53.1599,
      "raan_deg": 165.4491,
      "arg_perigee_deg": 96.1855,
      "mean_anomaly_deg": 263.9334,
      "mean_motion_rev_day": 15.30210421
    },
    {
      "epoch": "2026-04-02T10:40:38.462304Z",
      "apogee_km": 475.9188429340056,
      "perigee_km": 474.4333187905977,
      "latitude_deg": -2.5470906268884704e-05,
      "longitude_deg": 169.94606198019173,
      "height_km": 475.99920597419805,
      "semi_major_axis_km": 6853.313080862302,
      "eccentricity": 0.00010838,
      "inclination_deg": 53.1648,
      "raan_deg": 160.8998,
      "arg_perigee_deg": 84.1476,
      "mean_anomaly_deg": 275.9648,
      "mean_motion_rev_day": 15.30213058
    },
    {
      "epoch": "2026-04-02T21:39:00.336672Z",
      "apogee_km": 475.8513866613539,
      "perigee_km": 474.3480606536523,
      "latitude_deg": 2.5656439382197384e-05,
      "longitude_deg": 2.7789226508386267,
      "height_km": 476.0804124409169,
      "semi_major_axis_km": 6853.236723657503,
      "eccentricity": 0.00010968,
      "inclination_deg": 53.1597,
      "raan_deg": 158.7744,
      "arg_perigee_deg": 96.293,
      "mean_anomaly_deg": 263.8196,
      "mean_motion_rev_day": 15.30238632
    },
    {
      "epoch": "2026-04-03T13:19:32.788704Z",
      "apogee_km": 476.207298751674,
      "perigee_km": 474.3788036140186,
      "latitude_deg": -4.862538829246731e-05,
      "longitude_deg": 123.9649731825542,
      "height_km": 475.88423119467154,
      "semi_major_axis_km": 6853.430051182846,
      "eccentricity": 0.0001334,
      "inclination_deg": 53.1572,
      "raan_deg": 155.7395,
      "arg_perigee_deg": 70.4047,
      "mean_anomaly_deg": 289.7097,
      "mean_motion_rev_day": 15.30173883
    },
    {
      "epoch": "2026-04-04T20:40:37.174368Z",
      "apogee_km": 476.0382783398809,
      "perigee_km": 474.32494868650247,
      "latitude_deg": 3.8640277832370326e-05,
      "longitude_deg": 6.342214969503868,
      "height_km": 475.8472960322806,
      "semi_major_axis_km": 6853.318613513192,
      "eccentricity": 0.000125,
      "inclination_deg": 53.159,
      "raan_deg": 149.6725,
      "arg_perigee_deg": 74.2607,
      "mean_anomaly_deg": 285.8532,
      "mean_motion_rev_day": 15.30211205
    },
    {
      "epoch": "2026-04-05T12:21:09.151200Z",
      "apogee_km": 476.0096843504798,
      "perigee_km": 474.40531640294193,
      "latitude_deg": -1.2457237936326406e-05,
      "longitude_deg": 127.53226711739961,
      "height_km": 475.8970571447667,
      "semi_major_axis_km": 6853.34450037671,
      "eccentricity": 0.00011705,
      "inclination_deg": 53.1573,
      "raan_deg": 146.6396,
      "arg_perigee_deg": 74.9405,
      "mean_anomaly_deg": 285.1725,
      "mean_motion_rev_day": 15.30202535
    },
    {
      "epoch": "2026-04-05T20:11:25.042848Z",
      "apogee_km": 476.19178082503186,
      "perigee_km": 474.19060899211854,
      "latitude_deg": 3.7626684893650455e-05,
      "longitude_deg": 8.127803791014578,
      "height_km": 475.8878265543767,
      "semi_major_axis_km": 6853.328194908575,
      "eccentricity": 0.000146,
      "inclination_deg": 53.1575,
      "raan_deg": 145.1232,
      "arg_perigee_deg": 78.4141,
      "mean_anomaly_deg": 281.7024,
      "mean_motion_rev_day": 15.30207996
    },
    {
      "epoch": "2026-04-06T04:01:40.659744Z",
      "apogee_km": 476.1790209950277,
      "perigee_km": 474.13166843996714,
      "latitude_deg": -4.083254992268961e-05,
      "longitude_deg": -111.27570749553128,
      "height_km": 475.9258883458446,
      "semi_major_axis_km": 6853.292344717497,
      "eccentricity": 0.00014937,
      "inclination_deg": 53.1576,
      "raan_deg": 143.6067,
      "arg_perigee_deg": 82.8736,
      "mean_anomaly_deg": 277.2434,
      "mean_motion_rev_day": 15.30220003
    },
    {
      "epoch": "2026-04-07T09:48:41.436288Z",
      "apogee_km": 475.8728438643602,
      "perigee_km": 474.53096010735135,
      "latitude_deg": 1.0195281710696418e-05,
      "longitude_deg": 154.9822247663711,
      "height_km": 475.9469669400264,
      "semi_major_axis_km": 6853.338901985855,
      "eccentricity": 9.79e-05,
      "inclination_deg": 53.1576,
      "raan_deg": 137.841,
      "arg_perigee_deg": 76.8024,
      "mean_anomaly_deg": 283.3086,
      "mean_motion_rev_day": 15.3020441
    },
    {
      "epoch": "2026-04-08T12:27:35.853408Z",
      "apogee_km": 476.02567722880485,
      "perigee_km": 474.4478935159359,
      "latitude_deg": 9.51394557972901e-06,
      "longitude_deg": 109.00457000179068,
      "height_km": 476.05436020498774,
      "semi_major_axis_km": 6853.37378537237,
      "eccentricity": 0.00011511,
      "inclination_deg": 53.1574,
      "raan_deg": 132.6845,
      "arg_perigee_deg": 84.1514,
      "mean_anomaly_deg": 275.9618,
      "mean_motion_rev_day": 15.30192727
    },
    {
      "epoch": "2026-04-09T08:50:17.253600Z",
      "apogee_km": 475.81542827321846,
      "perigee_km": 474.608416461012,
      "latitude_deg": -7.082621495353422e-06,
      "longitude_deg": 158.54655271022892,
      "height_km": 475.7804272356527,
      "semi_major_axis_km": 6853.348922367115,
      "eccentricity": 8.806e-05,
      "inclination_deg": 53.1567,
      "raan_deg": 128.7359,
      "arg_perigee_deg": 56.8594,
      "mean_anomaly_deg": 303.2491,
      "mean_motion_rev_day": 15.30201054
    },
    {
      "epoch": "2026-04-10T11:29:11.568768Z",
      "apogee_km": 475.99250397568176,
      "perigee_km": 474.4203469938757,
      "latitude_deg": 1.2661615911468851e-05,
      "longitude_deg": 112.57203948498443,
      "height_km": 475.9956262899389,
      "semi_major_axis_km": 6853.343425484779,
      "eccentricity": 0.0001147,
      "inclination_deg": 53.1585,
      "raan_deg": 123.5821,
      "arg_perigee_deg": 82.0371,
      "mean_anomaly_deg": 278.076,
      "mean_motion_rev_day": 15.30202895
    },
    {
      "epoch": "2026-04-11T12:34:02.883072Z",
      "apogee_km": 476.0945664739138,
      "perigee_km": 474.3853342624916,
      "latitude_deg": -1.430726037448578e-05,
      "longitude_deg": 90.47437092239596,
      "height_km": 476.0190803178671,
      "semi_major_axis_km": 6853.376950368202,
      "eccentricity": 0.0001247,
      "inclination_deg": 53.1589,
      "raan_deg": 118.7283,
      "arg_perigee_deg": 82.0043,
      "mean_anomaly_deg": 278.1099,
      "mean_motion_rev_day": 15.30191667
    }
  ]
}